OBJECT_NAME,OBJECT_ID,EPOCH,MEAN_MOTION,ECCENTRICITY,INCLINATION,RA_OF_ASC_NODE,ARG_OF_PERICENTER,MEAN_ANOMALY,EPHEMERIS_TYPE,CLASSIFICATION_TYPE,NORAD_CAT_ID,ELEMENT_SET_NO,REV_AT_EPOCH,BSTAR,MEAN_MOTION_DOT,MEAN_MOTION_DDOT
EMISAT,2019-018A,2026-06-03T21:45:30.323808,14.43680140,.00172405,98.4648,213.7787,257.1778,102.7486,0,U,44078,999,37814,.42391614E-4,.1E-5,0
JILIN-1 GAOFEN 3A,2019-032C,2026-06-03T22:01:44.595264,15.32324231,.00058154,44.9747,69.9488,232.9522,127.0831,0,U,44312,999,38580,.40504215E-3,.12605E-3,0
WT 1B,2019-032G,2026-06-03T22:04:44.224320,15.26919569,.00087473,44.9729,133.3408,179.4353,180.6541,0,U,44316,999,38505,.54837014E-3,.14517E-3,0
PROX-1,2019-036A,2026-06-02T09:29:07.344096,14.90241213,.00056447,23.9937,213.0381,216.2369,143.7749,0,U,44339,999,37126,.1305371E-2,.13271E-3,0
NPSAT1,2019-036B,2026-06-01T16:30:02.500416,14.74428661,.00080322,24.0001,318.6958,35.7344,324.3688,0,U,44340,999,37020,.8434587E-3,.5973E-4,0
FORMOSAT 7-3,2019-036E,2026-06-01T10:53:57.174144,15.09678412,.00011802,24.0003,286.8181,89.1954,270.8685,0,U,44343,999,38086,.28639579E-3,.5082E-4,0
FORMOSAT 7-1,2019-036L,2026-06-01T05:51:20.968416,14.96431318,.00007678,23.9966,139.8706,22.0039,338.0495,0,U,44349,999,38226,.22746787E-3,.2945E-4,0
FORMOSAT 7-4,2019-036M,2026-06-02T07:59:57.389568,14.96434263,.00012642,23.9967,194.6368,37.2837,322.7752,0,U,44350,999,38184,.20226887E-3,.2653E-4,0
FORMOSAT 7-2,2019-036N,2026-06-02T11:44:12.270624,14.96438939,.0000776,23.9983,247.9036,45.2979,314.7584,0,U,44351,999,38138,.23194E-3,.2998E-4,0
FORMOSAT 7-6,2019-036Q,2026-06-01T03:43:34.451040,14.96433653,.00007625,23.9983,77.7033,267.9175,92.1238,0,U,44353,999,37941,.23202823E-3,.2998E-4,0
FORMOSAT 7-5,2019-036V,2026-06-02T19:11:25.287072,14.96449887,.00004688,24.0006,5.3713,42.2420,317.8117,0,U,44358,999,38019,.24093441E-3,.3103E-4,0
METEOR-M2 2,2019-038A,2026-06-03T21:32:57.390144,14.24361669,.00023538,98.9139,141.9874,68.0951,292.0477,0,U,44387,999,35940,.4787372E-5,-.35E-6,0
GLOBAL-4,2019-054E,2026-06-01T19:25:47.072640,15.62828840,.0006292,45.0073,325.0328,248.1786,111.8441,0,U,44499,999,37795,.65879081E-3,.61014E-3,0
ZY-1 02D,2019-059A,2026-06-03T23:09:25.963776,14.35455102,.00020432,98.3192,216.9171,127.5884,232.5488,0,U,44528,999,35244,.17227276E-4,.8E-7,0
TAURUS-1 (JINNIUZUO 1),2019-059C,2026-06-03T22:04:40.571328,14.71949656,.00081601,98.6408,318.9272,2.1071,358.0167,0,U,44530,999,35669,.12712645E-2,.7926E-4,0
ZHUHAI-1 03B,2019-060C,2026-06-03T21:59:15.601056,15.53317784,.00082243,97.5519,311.9740,12.4444,347.7010,0,U,44536,999,37426,.51824673E-3,.32714E-3,0
ZHUHAI-1 03C,2019-060D,2026-06-03T03:53:35.420928,16.31889338,.0012525,97.5247,325.4962,265.6201,94.3663,0,U,44537,999,37503,.83050081E-3,.4414569E-1,.2579305E-5
ZHUHAI-1 03D,2019-060E,2026-06-03T22:03:55.776384,15.48967306,.00070432,97.5382,304.2153,356.3569,3.7629,0,U,44538,999,37402,.58637654E-3,.31708E-3,0
ZHUHAI-1 03E,2019-060F,2026-06-03T22:20:03.001056,15.40615316,.00068676,97.5604,304.4239,76.0588,284.1421,0,U,44539,999,37372,.4622107E-3,.18768E-3,0
GAOFEN-7,2019-072A,2026-06-03T21:56:33.537984,15.21494694,.00181926,97.2430,216.8786,83.6833,276.6475,0,U,44703,999,36562,.22014478E-3,.4907E-4,0
JILIN-1 GAOFEN 2A,2019-075A,2026-06-03T20:56:07.566720,15.38943830,.00075823,97.4966,238.3550,126.1667,234.0281,0,U,44777,999,36283,.39906109E-3,.15322E-3,0
NINGXIA-1 1,2019-076A,2026-06-03T20:33:09.611136,14.02037279,.00101434,45.0062,239.4255,96.7506,263.4483,0,U,44779,999,33598,.2439994E-4,-.92E-6,0
NINGXIA-1 5,2019-076E,2026-06-03T20:52:57.321696,14.02085848,.00098631,45.0055,238.7103,85.4202,274.7759,0,U,44783,999,33590,.13039821E-3,.71E-6,0
KL-ALPHA A,2019-077A,2026-06-03T21:53:29.945760,13.56041939,.00124626,88.9260,224.0154,139.2274,220.9815,0,U,44785,999,32393,.98119886E-4,.81E-6,0
CARTOSAT-3,2019-081A,2026-06-03T22:02:48.006816,15.19350600,.00122181,97.4306,216.9983,190.9768,169.1202,0,U,44804,999,36145,.21344821E-3,.4451E-4,0
JILIN-1 GAOFEN 2B,2019-086A,2026-06-03T22:05:44.584224,15.20557433,.00140843,97.4882,226.9960,12.9186,347.2407,0,U,44836,999,35847,.29538995E-3,.6413E-4,0
TIANQIN 1 (CAS-6),2019-093A,2026-06-03T21:46:39.329760,14.95365713,.00126921,97.7800,238.8443,97.7913,262.4749,0,U,44879,999,35006,.28932834E-3,.314E-4,0
ETRSS-1,2019-093B,2026-06-03T22:01:55.955136,14.95790079,.00130899,97.7822,239.3024,97.7389,262.5318,0,U,44880,999,35007,.38491588E-3,.4243E-4,0
