EMISAT                  
1 44078U 19018A   26154.90660097  .00000100  00000+0  42392-4 0  9991
2 44078  98.4648 213.7787 0017240 257.1778 102.7486 14.43680140378142
JILIN-1 GAOFEN 3A       
1 44312U 19032C   26154.91787726  .00012605  00000+0  40504-3 0  9993
2 44312  44.9747  69.9488 0005815 232.9522 127.0831 15.32324231385801
WT 1B                   
1 44316U 19032G   26154.91995630  .00014517  00000+0  54837-3 0  9990
2 44316  44.9729 133.3408 0008747 179.4353 180.6541 15.26919569385054
PROX-1                  
1 44339U 19036A   26153.39522389  .00013271  00000+0  13054-2 0  9998
2 44339  23.9937 213.0381 0005644 216.2369 143.7749 14.90241213371265
NPSAT1                  
1 44340U 19036B   26152.68752894  .00005973  00000+0  84346-3 0  9990
2 44340  24.0001 318.6958 0008032  35.7344 324.3688 14.74428661370202
FORMOSAT 7-3            
1 44343U 19036E   26152.45413396  .00005082  00000+0  28640-3 0  9995
2 44343  24.0003 286.8181 0001180  89.1954 270.8685 15.09678412380863
FORMOSAT 7-1            
1 44349U 19036L   26152.24399269  .00002945  00000+0  22747-3 0  9997
2 44349  23.9966 139.8706 0000767  22.0039 338.0495 14.96431318382264
FORMOSAT 7-4            
1 44350U 19036M   26153.33330312  .00002653  00000+0  20227-3 0  9991
2 44350  23.9967 194.6368 0001264  37.2837 322.7752 14.96434263381848
FORMOSAT 7-2            
1 44351U 19036N   26153.48903091  .00002998  00000+0  23194-3 0  9996
2 44351  23.9983 247.9036 0000776  45.2979 314.7584 14.96438939381381
FORMOSAT 7-6            
1 44353U 19036Q   26152.15525985  .00002998  00000+0  23203-3 0  9994
2 44353  23.9983  77.7033 0000762 267.9175  92.1238 14.96433653379417
FORMOSAT 7-5            
1 44358U 19036V   26153.79959823  .00003103  00000+0  24093-3 0  9999
2 44358  24.0006   5.3713 0000468  42.2420 317.8117 14.96449887380198
METEOR-M2 2             
1 44387U 19038A   26154.89788646 -.00000035  00000+0  47874-5 0  9994
2 44387  98.9139 141.9874 0002353  68.0951 292.0477 14.24361669359407
GLOBAL-4                
1 44499U 19054E   26152.80957260  .00061014  00000+0  65879-3 0  9991
2 44499  45.0073 325.0328 0006292 248.1786 111.8441 15.62828840377954
ZY-1 02D                
1 44528U 19059A   26154.96488384  .00000008  00000+0  17227-4 0  9995
2 44528  98.3192 216.9171 0002043 127.5884 232.5488 14.35455102352448
TAURUS-1 (JINNIUZUO 1)  
1 44530U 19059C   26154.91991402  .00007926  00000+0  12713-2 0  9992
2 44530  98.6408 318.9272 0008160   2.1071 358.0167 14.71949656356692
ZHUHAI-1 03B            
1 44536U 19060C   26154.91615279  .00032714  00000+0  51825-3 0  9996
2 44536  97.5519 311.9740 0008224  12.4444 347.7010 15.53317784374268
ZHUHAI-1 03C            
1 44537U 19060D   26154.16221552  .04414569  25793-5  83050-3 0  9994
2 44537  97.5247 325.4962 0012525 265.6201  94.3663 16.31889338375036
ZHUHAI-1 03D            
1 44538U 19060E   26154.91939556  .00031708  00000+0  58638-3 0  9996
2 44538  97.5382 304.2153 0007043 356.3569   3.7629 15.48967306374021
ZHUHAI-1 03E            
1 44539U 19060F   26154.93059029  .00018768  00000+0  46221-3 0  9993
2 44539  97.5604 304.4239 0006867  76.0588 284.1421 15.40615316373720
GAOFEN-7                
1 44703U 19072A   26154.91427706  .00004907  00000+0  22014-3 0  9992
2 44703  97.2430 216.8786 0018192  83.6833 276.6475 15.21494694365629
JILIN-1 GAOFEN 2A       
1 44777U 19075A   26154.87230980  .00015322  00000+0  39906-3 0  9998
2 44777  97.4966 238.3550 0007582 126.1667 234.0281 15.38943830362835
NINGXIA-1 1             
1 44779U 19076A   26154.85636124 -.00000092  00000+0  24400-4 0  9992
2 44779  45.0062 239.4255 0010143  96.7506 263.4483 14.02037279335985
NINGXIA-1 5             
1 44783U 19076E   26154.87010789  .00000071  00000+0  13040-3 0  9995
2 44783  45.0055 238.7103 0009863  85.4202 274.7759 14.02085848335909
KL-ALPHA A              
1 44785U 19077A   26154.91215215  .00000081  00000+0  98120-4 0  9998
2 44785  88.9260 224.0154 0012462 139.2274 220.9815 13.56041939323932
CARTOSAT-3              
1 44804U 19081A   26154.91861119  .00004451  00000+0  21345-3 0  9994
2 44804  97.4306 216.9983 0012218 190.9768 169.1202 15.19350600361453
JILIN-1 GAOFEN 2B       
1 44836U 19086A   26154.92065491  .00006413  00000+0  29539-3 0  9997
2 44836  97.4882 226.9960 0014084  12.9186 347.2407 15.20557433358472
TIANQIN 1 (CAS-6)       
1 44879U 19093A   26154.90739965  .00003140  00000+0  28933-3 0  9995
2 44879  97.7800 238.8443 0012692  97.7913 262.4749 14.95365713350065
ETRSS-1                 
1 44880U 19093B   26154.91800874  .00004243  00000+0  38492-3 0  9992
2 44880  97.7822 239.3024 0013089  97.7389 262.5318 14.95790079350071
